SL-14 R/B               
1 20262U 89080C   25308.81884654  .00000254  00000+0  66556-4 0  9991
2 20262  82.5917 253.3556 1231472 110.2077 263.5559 12.50372709644547
DELTA 1 R/B             
1 20323U 89089B   25308.63110047  .00000394  00000+0  10612-3 0  9992
2 20323  97.0792 170.9019 0069769 156.6078 203.8320 14.50522860877602
ARIANE 40 R/B           
1 20443U 90005H   25308.65563626  .00000357  00000+0  12753-3 0  9999
2 20443  98.3297   7.9005 0009475 215.2152 144.8411 14.39752246874811
DELTA 2 R/B(1)          
1 20453U 90008B   25308.58627521  .00033719  00000+0  59857-3 0  9994
2 20453  35.6083 266.2483 0118510 191.7269 168.0693 15.41679548906731
COSMOS 2058             
1 20465U 90010A   25308.79300943  .00003272  00000+0  19925-3 0  9992
2 20465  82.4678 170.3578 0011522  46.0232 314.1946 15.10034522923389
SL-14 R/B               
1 20466U 90010B   25308.63494455  .00000543  00000+0  63158-4 0  9994
2 20466  82.5051  24.8274 0019658 356.5457   3.5619 14.83417436909948
SL-14 R/B               
1 20511U 90018B   25308.80256189  .00000460  00000+0  54917-4 0  9993
2 20511  82.5214 339.8272 0017441 139.1648 221.0877 14.81991625904080
HST                     
1 20580U 90037B   25308.70621628  .00007044  00000+0  24780-3 0  9992
2 20580  28.4662 171.2249 0001806 160.2000 199.8665 15.27310163754172
SL-16 R/B               
1 20625U 90046B   25308.71319616 -.00000122  00000+0 -38197-4 0  9994
2 20625  70.9990 200.3792 0012476 142.1529 218.0474 14.14992252830712
COSMOS 2084             
1 20663U 90055A   25308.69157606  .00003910  00000+0  28664-3 0  9995
2 20663  62.7922  41.6031 0038049 170.1316 190.0540 15.04667124917502
SL-6 R/B(2)             
1 20666U 90055D   25308.77631470  .00002414  00000+0  19395-3 0  9992
2 20666  62.7836 318.3829 0010669 274.9483  85.0398 15.02786894919414
SL-8 R/B                
1 20775U 90078B   25308.85989403  .00013127  00000+0  40485-3 0  9996
2 20775  82.9084   3.1514 0382689  72.5072 291.7581 14.83929448790750
SL-8 R/B                
1 21088U 91006B   25308.82563124  .00000126  00000+0  11099-3 0  9995
2 21088  82.9401 262.9161 0023280  28.2590 350.0034 13.77481538746888
OKEAN-3                 
1 21397U 91039A   25308.69110543  .00004297  00000+0  31069-3 0  9994
2 21397  82.5141  97.8623 0015494  39.7173 320.5184 15.03720817846244
COSMOS 2151             
1 21422U 91042A   25308.78912279  .00002497  00000+0  20107-3 0  9994
2 21422  82.4995 204.0635 0013936 116.7455 243.5197 14.99475517844471
SL-14 R/B               
1 21423U 91042B   25308.82951468  .00000462  00000+0  55679-4 0  9996
2 21423  82.4929 337.2779 0015567 293.6384  66.3195 14.81686329834581
ERS-1                   
1 21574U 91050A   25308.50304525  .00000358  00000+0  12949-3 0  9999
2 21574  98.7929 318.5971 0031423 212.0514 147.8763 14.39318971797721
ARIANE 40 R/B           
1 21610U 91050F   25308.85169000  .00000395  00000+0  13113-3 0  9990
2 21610  98.2222   0.6399 0004407  93.9122 266.2573 14.42762653800992
INTERCOSMOS 25          
1 21819U 91086A   25308.32585345  .00001453  00000+0  28083-3 0  9994
2 21819  82.6096  25.7911 1488754  27.1840 339.9784 12.11562456481502
SL-8 R/B                
1 21876U 92008B   25308.88863294  .00000119  00000+0  10579-3 0  9994
2 21876  82.9294   0.5992 0035970 122.2527  50.7900 13.75947387692259
SL-8 R/B                
1 21938U 92020B   25308.79081220  .00000044  00000+0  29825-4 0  9990
2 21938  82.9300 246.4957 0027688 287.8258  99.4362 13.75520158683967
USA 81                  
1 21949U 92023A   25308.68077896  .00000226  00000+0  76471-4 0  9998
2 21949  85.0116 203.5191 0002782  83.1884 276.9625 14.32305426 76897
COSMOS 2219             
1 22219U 92076A   25308.87911941  .00000314  00000+0  18934-3 0  9993
2 22219  71.0599 278.9732 0017153  24.3415 335.8514 14.14061093700738
SL-16 R/B               
1 22220U 92076B   25308.82469396  .00000282  00000+0  16439-3 0  9994
2 22220  70.9985  91.3952 0015019 283.2511 240.6188 14.16831913704147
COSMOS 2221             
1 22236U 92080A   25308.75046278  .00002383  00000+0  21247-3 0  9995
2 22236  82.5070  38.6732 0013260 250.0333 109.9461 14.95529518762112
SL-16 R/B               
1 22285U 92093B   25308.86429150  .00000105  00000+0  78107-4 0  9997
2 22285  71.0202 266.3007 0003324 169.0637 191.0559 14.15418268695494
COSMOS 2228             
1 22286U 92094A   25308.84765532  .00001959  00000+0  16985-3 0  9997
2 22286  82.5200 356.7853 0018133   7.5263 352.6227 14.96469518757385
SL-16 R/B               
1 22566U 93016B   25308.46820685 -.00000177  00000+0 -66521-4 0  9997
2 22566  71.0049 118.1818 0009473 167.1025 193.0342 14.15278516684456
COSMOS 2242             
1 22626U 93024A   25308.64392279  .00002411  00000+0  21290-3 0  9990
2 22626  82.5224  26.2450 0016571  11.1812 348.9775 14.95868043761696
SL-16 R/B               
1 22803U 93059B   25308.61769723 -.00000144  00000+0 -47389-4 0  9995
2 22803  70.9890 274.8729 0015710  34.0812 326.1317 14.17202102661816
ARIANE 40 R/B           
1 22830U 93061H   25308.62839662  .00000275  00000+0  11703-3 0  9992
2 22830  98.5123  14.8437 0009651 296.8021  63.2176 14.32764154676192
COSMOS 2278             
1 23087U 94023A   25308.76855895  .00000081  00000+0  66939-4 0  9994
2 23087  71.0520  76.4480 0010383 228.3235 131.7000 14.14331581627149
SL-16 R/B               
1 23088U 94023B   25308.80151650 -.00000024  00000+0  12394-4 0  9992
2 23088  71.0008 333.1602 0001852 176.5930 183.5206 14.14993014628427
SL-16 R/B               
1 23343U 94074B   25308.54211347  .00000553  00000+0  81136-4 0  9999
2 23343  97.7254 339.3556 0005106 268.8899 247.1606 14.79221144668749
SL-16 R/B               
1 23405U 94077B   25308.54916898  .00000125  00000+0  88392-4 0  9990
2 23405  70.9816 255.7538 0003540 315.0609  45.0227 14.15538819598522
ARIANE 40+ R/B          
1 23561U 95021B   25308.66801804  .00000378  00000+0  13483-3 0  9994
2 23561  98.4697  16.7091 0007403 148.9977   3.4782 14.39648815601252
SL-16 R/B               
1 23705U 95058B   25308.62062144  .00000250  00000+0  15229-3 0  9995
2 23705  71.0207  82.8312 0014378 304.7670  55.2099 14.15473733550154
SL-16 R/B               
1 24298U 96051B   25308.45707606 -.00000091  00000+0 -22641-4 0  9999
2 24298  70.7590  80.3112 0017578 310.1672  49.7907 14.12392231503965
ORBVIEW 2 (SEASTAR)     
1 24883U 97037A   25308.43710663  .00000344  00000+0  13611-3 0  9994
2 24883  98.8444 104.5530 0003212  77.4016 282.7528 14.35371419490505
SL-16 R/B               
1 25400U 98043G   25308.62867471  .00000088  00000+0  55708-4 0  9998
2 25400  98.8059 256.2461 0010290  23.1604 337.0038 14.26010571421161
SL-16 R/B               
1 25407U 98045B   25308.48104363  .00000207  00000+0  12884-3 0  9995
2 25407  71.0103  84.8797 0008958 228.2343 131.8015 14.16167499409379
ISS (ZARYA)             
1 25544U 98067A   25308.55131963  .00010237  00000+0  18874-3 0  9994
2 25544  51.6336 331.5320 0005028  16.6774 343.4380 15.49747070536934
CZ-4B R/B               
1 25732U 99025C   25308.60032113  .00000089  00000+0  63779-4 0  9990
2 25732  98.6829 350.7223 0036783 346.3948 169.5743 14.18228857370437
OKEAN-O                 
1 25860U 99039A   25308.59359705  .00000860  00000+0  12046-3 0  9991
2 25860  97.9659   4.6162 0001685  73.0275 287.1121 14.80061540415888
SL-16 R/B               
1 25861U 99039B   25308.62552921  .00000671  00000+0  92401-4 0  9995
2 25861  98.0182   2.7641 0013700 306.4652  53.5298 14.81501214418348
DELTA 2 R/B             
1 25876U 99041E   25308.11843151  .00000960  00000+0  19356-3 0  9994
2 25876  51.7634  82.5943 0504730 337.9496  20.0390 14.11262397345290
HELIOS 1B               
1 25977U 99064A   25308.65404850  .00002235  00000+0  25587-3 0  9999
2 25977  98.1759 202.1958 0002512  94.7575 265.3927 14.87039496666671
TERRA                   
1 25994U 99068A   25308.67154766  .00000568  00000+0  12518-3 0  9999
2 25994  97.9804   1.7411 0001805 183.3828 335.0465 14.60883477376829
SL-16 R/B               
1 26070U 00006B   25308.53468481  .00000247  00000+0  14969-3 0  9992
2 26070  71.0041   0.9899 0016323   3.9398 356.1850 14.15800138330849
TITAN 4B R/B            
1 26474U 00047B   25308.61970885  .00004692  00000+0  30347-3 0  9996
2 26474  67.9921  31.8827 0042632 188.5932 171.4492 15.08355382374047
ENVISAT                 
1 27386U 02009A   25308.46286628  .00000158  00000+0  64942-4 0  9999
2 27386  98.3535 260.1864 0001352  84.0589  25.7838 14.38977043241166
IDEFIX & ARIANE 42P R/B 
1 27422U 02021B   25308.54422119  .00000342  00000+0  14691-3 0  9990
2 27422  98.5726 243.7430 0011388 190.7755 169.3186 14.30906542226125
AQUA                    
1 27424U 02022A   25308.65137800  .00001261  00000+0  26318-3 0  9995
2 27424  98.3977 268.9269 0001160  49.2631 123.6967 14.61666224250468
CZ-4B R/B               
1 27432U 02024C   25308.60839759  .00000061  00000+0  54371-4 0  9991
2 27432  98.9060 357.5023 0050455  19.3782 133.7811 14.14515825211550
MIDORI II (ADEOS-II)    
1 27597U 02056A   25308.63018325  .00000332  00000+0  14872-3 0  9991
2 27597  98.7572 261.3993 0001679  45.7039 314.4280 14.29164653192436
H-2A R/B                
1 27601U 02056E   25308.66560127  .00000319  00000+0  12642-3 0  9990
2 27601  98.3005 268.9509 0070345 173.1864 359.4909 14.33634078196195
CZ-4B R/B               
1 28059U 03049C   25308.42581749  .00000511  00000+0  12930-3 0  9992
2 28059  98.6761 293.5479 0047104 253.7149 105.8863 14.54853501168382
CZ-2C R/B               
1 28222U 04012C   25308.54968968  .00032799  00000+0  53916-3 0  9992
2 28222  97.7499 358.1079 0020239  53.0902 307.2200 15.52089083184795
SL-16 R/B               
1 28353U 04021B   25308.50690926 -.00000077  00000+0 -15385-4 0  9994
2 28353  70.9972 135.1969 0006935 240.7098 119.3332 14.14569516105138
